M2 PATHFINDER           
1 45727U 20037E   26191.98642558  .00001098  00000+0  82277-4 0  9990
2 45727  97.8152  23.4874 0013301  75.6890 284.5811 15.04784186329074
NETSAT-4                
1 46504U 20068U   26191.97040448  .00011234  00000+0  24305-3 0  9997
2 46504  97.8611 202.1358 0004167 211.5117 148.5881 15.44660441319441
NETSAT-3                
1 46505U 20068V   26191.47601788  .00013134  00000+0  29504-3 0  9990
2 46505  97.8656 199.7886 0003315 232.8022 127.2923 15.43499596319275
NETSAT-1                
1 46506U 20068W   26191.80015832  .00008091  00000+0  23952-3 0  9994
2 46506  97.8752 194.1870 0002469 290.2637  69.8340 15.35180198318925
NETSAT-2                
1 46507U 20068X   26191.26431347  .00017699  00000+0  35205-3 0  9996
2 46507  97.8618 201.3545 0001568 234.8555 125.2546 15.47015084319301
GREENCUBE (IO-117)      
1 53109U 22080E   26191.21848870 -.00000003  00000+0  00000+0 0  9999
2 53109  70.1422 290.2367 0009008 284.7282  75.2379  6.42583278 93544
SITRO-AIS 5 (KATYS)     
1 57176U 23091L   26192.20739059  .00007630  00000+0  26488-3 0  9992
2 57176  97.5054 256.3420 0011102  26.3693 333.8110 15.30007285168010
SITRO-AIS 6 (CHIRKIN)   
1 57192U 23091AC  26192.17690212  .00006360  00000+0  24691-3 0  9996
2 57192  97.5061 255.3014 0011593  30.3675 329.8232 15.26390562167942
SITRO-AIS 8 (ANOKHIN)   
1 57193U 23091AD  26192.18165725  .00008876  00000+0  28238-3 0  9999
2 57193  97.5049 258.0043 0009948  22.4691 337.6984 15.32788770168123
SITRO-AIS 7 (FARTUSHNIY)
1 57194U 23091AE  26192.18504056  .00006253  00000+0  24516-3 0  9996
2 57194  97.5057 255.1219 0011556  31.4473 328.7454 15.26066449167938
SITRO-AIS 10 (BURDAEV)  
1 57199U 23091AK  26192.17534095  .00012443  00000+0  31867-3 0  9991
2 57199  97.5075 263.3043 0005232 358.1494   1.9731 15.39527064168450
SITRO-AIS 9 (SHCHUKIN)  
1 57201U 23091AM  26192.14452022  .00012425  00000+0  32355-3 0  9994
2 57201  97.5074 262.9836 0005504 358.6013   1.5216 15.39013178168430
SITRO-AIS 12 (SMIRENNIY)
1 57204U 23091AQ  26192.19558833  .00012886  00000+0  33225-3 0  9997
2 57204  97.5086 263.5182 0005029 351.4103   8.7055 15.39310376168463
SITRO-AIS 11 (SHEFFER)  
1 57208U 23091AU  26192.20225498  .00012694  00000+0  32268-3 0  9994
2 57208  97.5085 263.7870 0004919 350.8582   9.2573 15.39751919168488
SITRO-AIS 25            
1 59066U 24039R   26192.22707042  .00001531  00000+0  12156-3 0  9995
2 59066  95.3895 251.6123 0142505 243.5632 115.0914 14.93628038128319
SITRO-AIS 26            
1 59067U 24039S   26192.16474777  .00001531  00000+0  12214-3 0  9990
2 59067  95.3896 251.4622 0142841 244.4022 114.2385 14.93419631128296
SITRO-AIS 27            
1 59068U 24039T   26192.19522779  .00001773  00000+0  13975-3 0  9993
2 59068  95.3900 251.7662 0141922 242.8401 115.8296 14.93845731128328
SITRO-AIS 28            
1 59071U 24039U   26192.17213466  .00001785  00000+0  14058-3 0  9991
2 59071  95.3899 251.7988 0141818 242.7501 115.9218 14.93877405128322
GRBBETA                 
1 60237U 24128C   26190.31968764  .00002568  00000+0  18354-3 0  9991
2 60237  61.9890 138.6053 0037769 139.4381 220.9537 15.06782844109609
OOV-CUBE (TUBSAT-30)    
1 60240U 24128F   26190.61158508  .00001327  00000+0  11249-3 0  9993
2 60240  61.9941 147.3745 0041807 138.6970 221.7297 15.02859618109486
ROBUSTA-3A (MEDITERRAN*)
1 60243U 24128J   26192.21041632  .00004694  00000+0  28065-3 0  9997
2 60243  61.9858 123.2724 0038422 133.2159 227.2156 15.11950295110058
LASARSAT                
1 62391U 24247Q   26190.25332936  .00029396  00000+0  55886-3 0  9994
2 62391  44.9739 138.0904 0006560 123.7678 236.3838 15.47760337 86735
CROCUBE                 
1 62394U 24247T   26191.18961366  .00033442  00000+0  58812-3 0  9994
2 62394  44.9700 129.7539 0006914 137.1599 222.9832 15.49924104 86912
FORESAIL-1 PRIME        
1 66778U 25276DS  26190.79222540  .00003123  00000+0  15287-3 0  9999
2 66778  97.4192 263.6509 0003278  56.5130 303.6417 15.18908946 33831
KNACKSAT-2              
1 67683U 98067XZ  26191.97289461  .00033075  00000+0  37398-3 0  9995
2 67683  51.6257 174.6435 0008149 313.7973  46.2347 15.62098175 23996
