OBJECT_NAME,OBJECT_ID,EPOCH,MEAN_MOTION,ECCENTRICITY,INCLINATION,RA_OF_ASC_NODE,ARG_OF_PERICENTER,MEAN_ANOMALY,EPHEMERIS_TYPE,CLASSIFICATION_TYPE,NORAD_CAT_ID,ELEMENT_SET_NO,REV_AT_EPOCH,BSTAR,MEAN_MOTION_DOT,MEAN_MOTION_DDOT
M2 PATHFINDER,2020-037E,2026-07-10T23:40:27.170112,15.04784186,.0013301,97.8152,23.4874,75.6890,284.5811,0,U,45727,999,32907,.82277E-4,.1098E-4,0
NETSAT-4,2020-068U,2026-07-10T23:17:22.947072,15.44660441,.0004167,97.8611,202.1358,211.5117,148.5881,0,U,46504,999,31944,.24305E-3,.11234E-3,0
NETSAT-3,2020-068V,2026-07-10T11:25:27.944832,15.43499596,.00033159,97.8656,199.7886,232.8022,127.2923,0,U,46505,999,31927,.29504424E-3,.13134E-3,0
NETSAT-1,2020-068W,2026-07-10T19:12:13.678848,15.35180198,.0002469,97.8752,194.1870,290.2637,69.8340,0,U,46506,999,31892,.23952E-3,.8091E-4,0
NETSAT-2,2020-068X,2026-07-10T06:20:36.683808,15.47015084,.00015686,97.8618,201.3545,234.8555,125.2546,0,U,46507,999,31930,.35205322E-3,.17699E-3,0
GREENCUBE (IO-117),2022-080E,2026-07-10T05:14:37.423680,6.42583278,.00090084,70.1422,290.2367,284.7282,75.2379,0,U,53109,999,9354,0,-.3E-7,0
SITRO-AIS 5 (KATYS),2023-091L,2026-07-11T04:58:38.546976,15.30007285,.0011102,97.5054,256.3420,26.3693,333.8110,0,U,57176,999,16801,.26488E-3,.763E-4,0
SITRO-AIS 6 (CHIRKIN),2023-091AC,2026-07-11T04:14:44.343168,15.26390562,.0011593,97.5061,255.3014,30.3675,329.8232,0,U,57192,999,16794,.24691E-3,.636E-4,0
SITRO-AIS 8 (ANOKHIN),2023-091AD,2026-07-11T04:21:35.186400,15.32788770,.0009948,97.5049,258.0043,22.4691,337.6984,0,U,57193,999,16812,.28238E-3,.8876E-4,0
SITRO-AIS 7 (FARTUSHNIY),2023-091AE,2026-07-11T04:26:27.504384,15.26066449,.0011556,97.5057,255.1219,31.4473,328.7454,0,U,57194,999,16793,.24516E-3,.6253E-4,0
SITRO-AIS 10 (BURDAEV),2023-091AK,2026-07-11T04:12:29.458080,15.39527064,.0005232,97.5075,263.3043,358.1494,1.9731,0,U,57199,999,16845,.31867E-3,.12443E-3,0
SITRO-AIS 9 (SHCHUKIN),2023-091AM,2026-07-11T03:28:06.547008,15.39013178,.0005504,97.5074,262.9836,358.6013,1.5216,0,U,57201,999,16843,.32355E-3,.12425E-3,0
SITRO-AIS 12 (SMIRENNIY),2023-091AQ,2026-07-11T04:41:38.831712,15.39310376,.0005029,97.5086,263.5182,351.4103,8.7055,0,U,57204,999,16846,.33225E-3,.12886E-3,0
SITRO-AIS 11 (SHEFFER),2023-091AU,2026-07-11T04:51:14.830272,15.39751919,.0004919,97.5085,263.7870,350.8582,9.2573,0,U,57208,999,16848,.32268E-3,.12694E-3,0
SITRO-AIS 25,2024-039R,2026-07-11T05:26:58.884288,14.93628038,.0142505,95.3895,251.6123,243.5632,115.0914,0,U,59066,999,12831,.12156E-3,.1531E-4,0
SITRO-AIS 26,2024-039S,2026-07-11T03:57:14.207328,14.93419631,.0142841,95.3896,251.4622,244.4022,114.2385,0,U,59067,999,12829,.12214E-3,.1531E-4,0
SITRO-AIS 27,2024-039T,2026-07-11T04:41:07.681056,14.93845731,.0141922,95.3900,251.7662,242.8401,115.8296,0,U,59068,999,12832,.13975E-3,.1773E-4,0
SITRO-AIS 28,2024-039U,2026-07-11T04:07:52.434624,14.93877405,.0141818,95.3899,251.7988,242.7501,115.9218,0,U,59071,999,12832,.14058E-3,.1785E-4,0
GRBBETA,2024-128C,2026-07-09T07:40:21.012096,15.06782844,.00377691,61.9890,138.6053,139.4381,220.9537,0,U,60237,999,10960,.18353788E-3,.2568E-4,0
OOV-CUBE (TUBSAT-30),2024-128F,2026-07-09T14:40:40.950912,15.02859618,.00418074,61.9941,147.3745,138.6970,221.7297,0,U,60240,999,10948,.11248636E-3,.1327E-4,0
ROBUSTA-3A (MEDITERRANEE),2024-128J,2026-07-11T05:02:59.970048,15.11950295,.0038422,61.9858,123.2724,133.2159,227.2156,0,U,60243,999,11005,.28065E-3,.4694E-4,0
LASARSAT,2024-247Q,2026-07-09T06:04:47.656704,15.47760337,.00065601,44.9739,138.0904,123.7678,236.3838,0,U,62391,999,8673,.55885757E-3,.29396E-3,0
CROCUBE,2024-247T,2026-07-10T04:33:02.620224,15.49924104,.00069141,44.9700,129.7539,137.1599,222.9832,0,U,62394,999,8691,.58811806E-3,.33442E-3,0
FORESAIL-1 PRIME,2025-276DS,2026-07-09T19:00:48.274560,15.18908946,.00032784,97.4192,263.6509,56.5130,303.6417,0,U,66778,999,3383,.15287384E-3,.3123E-4,0
KNACKSAT-2,1998-067XZ,2026-07-10T23:20:58.094304,15.62098175,.0008149,51.6257,174.6435,313.7973,46.2347,0,U,67683,999,2399,.37398E-3,.33075E-3,0
